{
  "66836": {
    "noradId": "66836",
    "tle": [
      "1 66836C 25280R   26095.84701389  .00035465  00000+0  29723-2 0   952",
      "2 66836  70.0014 265.8900 0003136 273.7731 170.0599 14.98310171    13"
    ]
  },
  "66837": {
    "noradId": "66837",
    "tle": [
      "1 66837C 25280S   26095.88798611  .00041414  00000+0  34709-2 0   952",
      "2 66837  70.0015 266.0624 0003242 272.5248 143.7579 14.98306962    17"
    ]
  },
  "66838": {
    "noradId": "66838",
    "tle": [
      "1 66838C 25280T   26095.87131944  .00030014  00000+0  25143-2 0   958",
      "2 66838  70.0012 265.8022 0003363 273.5218 322.9503 14.98329629    19"
    ]
  },
  "66839": {
    "noradId": "66839",
    "tle": [
      "1 66839C 25280U   26095.80951389  .00027135  00000+0  22734-2 0   958",
      "2 66839  70.0012 266.0596 0002826 279.3771 253.7486 14.98327169    18"
    ]
  },
  "66840": {
    "noradId": "66840",
    "tle": [
      "1 66840C 25280V   26095.86506944  .00035333  00000+0  29614-2 0   952",
      "2 66840  70.0015 266.0208 0002996 272.8943 109.8471 14.98308711    17"
    ]
  },
  "66841": {
    "noradId": "66841",
    "tle": [
      "1 66841C 25280W   26095.94006944  .00025991  00000+0  21783-2 0   955",
      "2 66841  70.0012 265.8806 0003028 273.1088 109.0425 14.98316166    11"
    ]
  },
  "66842": {
    "noradId": "66842",
    "tle": [
      "1 66842C 25280X   26095.88034722  .00039751  00000+0  33316-2 0   958",
      "2 66842  70.0014 265.7290 0003187 273.0039  57.2013 14.98307029    16"
    ]
  },
  "66843": {
    "noradId": "66843",
    "tle": [
      "1 66843C 25280Y   26095.92687500  .00032485  00000+0  27224-2 0   950",
      "2 66843  70.0009 265.7130 0002642 274.5642 216.5295 14.98315579    16"
    ]
  },
  "66844": {
    "noradId": "66844",
    "tle": [
      "1 66844C 25280Z   26095.88729167  .00042494  00000+0  35616-2 0   957",
      "2 66844  70.0016 265.9124 0001996 280.5006 267.1026 14.98307191    17"
    ]
  },
  "66845": {
    "noradId": "66845",
    "tle": [
      "1 66845C 25280AA  26095.84631944  .00023228  00000+0  19466-2 0   958",
      "2 66845  70.0013 265.8389 0002942 267.3792 216.8387 14.98318593    13"
    ]
  },
  "66846": {
    "noradId": "66846",
    "tle": [
      "1 66846C 25280AB  26095.87687500  .00039090  00000+0  32771-2 0   959",
      "2 66846  70.0017 266.0149 0002339 268.6497 155.2273 14.98298039    13"
    ]
  },
  "66847": {
    "noradId": "66847",
    "tle": [
      "1 66847C 25280AC  26095.83798611  .00030885  00000+0  25886-2 0   954",
      "2 66847  70.0015 266.1615 0002460 271.9667 257.1974 14.98311801    15"
    ]
  },
  "66848": {
    "noradId": "66848",
    "tle": [
      "1 66848C 25281A   26095.76645833  .00078884  00000+0  28551-2 0   958",
      "2 66848  43.0030 190.9014 0001591 307.9495  17.4380 15.27562709    19"
    ]
  },
  "66849": {
    "noradId": "66849",
    "tle": [
      "1 66849C 25281B   26095.88590278  .00005710  00000+0  20671-3 0   958",
      "2 66849  43.0007 190.0867 0001941 263.4848  56.1309 15.27592506    17"
    ]
  },
  "66850": {
    "noradId": "66850",
    "tle": [
      "1 66850C 25281C   26095.89840278  .00005761  00000+0  20854-3 0   958",
      "2 66850  43.0001 189.9635 0001850 278.4492 131.2263 15.27595512    17"
    ]
  },
  "66851": {
    "noradId": "66851",
    "tle": [
      "1 66851C 25281D   26095.79770833  .00056617  00000+0  20498-2 0   956",
      "2 66851  42.9996 190.2943 0002054 278.0847  36.2414 15.27562669    12"
    ]
  },
  "66852": {
    "noradId": "66852",
    "tle": [
      "1 66852C 25281E   26095.92340278 -.00004576  00000+0 -16558-3 0   950",
      "2 66852  42.9999 189.5330 0002158 291.8620  15.7134 15.27611620    17"
    ]
  },
  "66853": {
    "noradId": "66853",
    "tle": [
      "1 66853C 25281F   26095.83798611  .00030121  00000+0  10900-2 0   956",
      "2 66853  43.0005 189.9660 0001914 283.5518 295.0665 15.27593180    13"
    ]
  },
  "66854": {
    "noradId": "66854",
    "tle": [
      "1 66854C 25281G   26095.87965278  .00016269  00000+0  58870-3 0   952",
      "2 66854  43.0018 189.6805 0001556 282.1710 187.0010 15.27601127    12"
    ]
  },
  "66855": {
    "noradId": "66855",
    "tle": [
      "1 66855C 25281H   26095.81993056  .00043382  00000+0  15699-2 0   959",
      "2 66855  43.0026 189.8769 0001613 273.6899 283.2524 15.27585970    16"
    ]
  },
  "66856": {
    "noradId": "66856",
    "tle": [
      "1 66856C 25281J   26095.93243056 -.00003117  00000+0 -11280-3 0   958",
      "2 66856  43.0034 190.0101 0001451 267.2383 230.7446 15.27604647    10"
    ]
  },
  "66857": {
    "noradId": "66857",
    "tle": [
      "1 66857C 25281K   26095.90048611  .00002801  00000+0  10140-3 0   957",
      "2 66857  43.0024 190.0896 0001206 271.7697  92.7707 15.27599907    15"
    ]
  },
  "66858": {
    "noradId": "66858",
    "tle": [
      "1 66858C 25281L   26095.90326389  .00006082  00000+0  22013-3 0   956",
      "2 66858  42.9996 189.8824 0001651 258.2710 199.3776 15.27599533    14"
    ]
  },
  "66859": {
    "noradId": "66859",
    "tle": [
      "1 66859C 25281M   26095.82201389  .00044295  00000+0  16029-2 0   957",
      "2 66859  42.9994 190.2903 0001191 287.3954 104.1406 15.27586137    19"
    ]
  },
  "66860": {
    "noradId": "66860",
    "tle": [
      "1 66860C 25281N   26095.89493056  .00007352  00000+0  26608-3 0   958",
      "2 66860  43.0001 189.6571 0001760 266.2896 258.6843 15.27598788    13"
    ]
  },
  "66861": {
    "noradId": "66861",
    "tle": [
      "1 66861C 25281P   26095.83729167 -.00086347  00000+0 -31251-2 0   950",
      "2 66861  43.0023 189.8653 0001495 288.5488 328.6850 15.27646658    16"
    ]
  },
  "66862": {
    "noradId": "66862",
    "tle": [
      "1 66862C 25281Q   26095.76298611  .00081930  00000+0  29652-2 0   951",
      "2 66862  42.9993 190.5730 0001272 278.5176 169.2603 15.27563538    12"
    ]
  },
  "66863": {
    "noradId": "66863",
    "tle": [
      "1 66863C 25281R   26095.90395833 -.00001427  00000+0 -51628-4 0   957",
      "2 66863  43.0027 189.3486 0001644 270.7495  50.0680 15.27607510    19"
    ]
  },
  "66864": {
    "noradId": "66864",
    "tle": [
      "1 66864C 25281S   26095.92062500  .00000351  00000+0  12692-4 0   953",
      "2 66864  43.0018 189.9397 0002004 264.2688 225.3215 15.27594610    17"
    ]
  },
  "66865": {
    "noradId": "66865",
    "tle": [
      "1 66865C 25281T   26095.91993056 -.00001757  00000+0 -63573-4 0   959",
      "2 66865  43.0025 189.3620 0001783 269.3973  96.9052 15.27609964    15"
    ]
  },
  "66866": {
    "noradId": "66866",
    "tle": [
      "1 66866C 25281U   26095.85881944  .00025176  00000+0  91129-3 0   951",
      "2 66866  43.0031 190.4401 0001485 266.8153 178.8142 15.27586899    15"
    ]
  },
  "66867": {
    "noradId": "66867",
    "tle": [
      "1 66867C 25281V   26095.89076389  .00001821  00000+0  65889-4 0   951",
      "2 66867  43.0027 190.2089 0001342 277.3833   5.3320 15.27606872    11"
    ]
  },
  "66868": {
    "noradId": "66868",
    "tle": [
      "1 66868C 25281W   26095.82618056  .00036162  00000+0  13087-2 0   955",
      "2 66868  43.0026 190.5243 0001903 295.6758  12.6842 15.27588061    17"
    ]
  },
  "66869": {
    "noradId": "66869",
    "tle": [
      "1 66869C 25281X   26095.88868056  .00004391  00000+0  15896-3 0   959",
      "2 66869  43.0010 190.0836 0001492 263.5693  64.2836 15.27594536    19"
    ]
  },
  "66870": {
    "noradId": "66870",
    "tle": [
      "1 66870C 25281Y   26095.90048611  .00005337  00000+0  19316-3 0   953",
      "2 66870  43.0003 189.9640 0001497 266.7081 147.3700 15.27602791    10"
    ]
  },
  "66871": {
    "noradId": "66871",
    "tle": [
      "1 66871C 25281Z   26095.91090278  .00001993  00000+0  72138-4 0   957",
      "2 66871  42.9997 189.8526 0001478 261.0443 231.6238 15.27602336    10"
    ]
  },
  "66872": {
    "noradId": "66872",
    "tle": [
      "1 66872C 25281AA  26095.87687500  .00010269  00000+0  37160-3 0   954",
      "2 66872  42.9993 189.9935 0001270 272.1357  54.3840 15.27602761    10"
    ]
  },
  "66873": {
    "noradId": "66873",
    "tle": [
      "1 66873C 25281AB  26095.92965278 -.00005932  00000+0 -21465-3 0   956",
      "2 66873  42.9997 189.5583 0001359 276.0747  37.6189 15.27610355    12"
    ]
  },
  "66874": {
    "noradId": "66874",
    "tle": [
      "1 66874C 25281AC  26095.84215278  .00033645  00000+0  12174-2 0   952",
      "2 66874  42.9994 190.1383 0001585 306.6878 209.8848 15.27593642    16"
    ]
  },
  "66875": {
    "noradId": "66875",
    "tle": [
      "1 66875C 25281AD  26095.89701389  .00007547  00000+0  27319-3 0   951",
      "2 66875  42.9997 189.6921 0001579 258.0750 257.1603 15.27596036    18"
    ]
  },
  "66876": {
    "noradId": "66876",
    "tle": [
      "1 66876C 25281AE  26095.87895833  .00012330  00000+0  44688-3 0   952",
      "2 66876  42.9995 189.8788 0001416 267.6613 112.9134 15.27551027    12"
    ]
  },
  "66878": {
    "noradId": "66878",
    "tle": [
      "1 66878C 25283A   26095.85812500  .00019745  00000+0  66550-3 0   953",
      "2 66878  53.1599 257.8703 0001041  77.0943 339.9564 15.30180133    12"
    ]
  },
  "66879": {
    "noradId": "66879",
    "tle": [
      "1 66879C 25283B   26095.91506944  .00054253  00000+0  18312-2 0   958",
      "2 66879  53.1599 257.4790 0000935  91.5514 343.4887 15.30118180    12"
    ]
  },
  "66880": {
    "noradId": "66880",
    "tle": [
      "1 66880C 25283C   26095.90743056  .00037890  00000+0  12771-2 0   957",
      "2 66880  53.1601 257.5720 0000987  82.3597 281.3548 15.30170248    15"
    ]
  },
  "66881": {
    "noradId": "66881",
    "tle": [
      "1 66881C 25283D   26095.89006944  .00032641  00000+0  10979-2 0   951",
      "2 66881  53.1594 257.5260 0000810  90.5212 241.4661 15.30240466    19"
    ]
  }
}